[{"OBJECT_NAME":"STARLINK-2606","OBJECT_ID":"2021-038AK","EPOCH":"2026-03-10T00:00:02.999808","MEAN_MOTION":15.29362682,"ECCENTRICITY":0.00014669,"INCLINATION":53.1559,"RA_OF_ASC_NODE":344.0267,"ARG_OF_PERICENTER":110.8471,"MEAN_ANOMALY":17.0834,"EPHEMERIS_TYPE":0,"CLASSIFICATION_TYPE":"U","NORAD_CAT_ID":48386,"ELEMENT_SET_NO":999,"REV_AT_EPOCH":579,"BSTAR":-0.00019575793,"MEAN_MOTION_DOT":-6.001e-5,"MEAN_MOTION_DDOT":0},{"OBJECT_NAME":"OBJECT L","OBJECT_ID":"2024-024L","EPOCH":"2026-03-09T22:36:05.522976","MEAN_MOTION":15.29373491,"ECCENTRICITY":0.00073185,"INCLINATION":97.3169,"RA_OF_ASC_NODE":137.7038,"ARG_OF_PERICENTER":167.6369,"MEAN_ANOMALY":192.5052,"EPHEMERIS_TYPE":0,"CLASSIFICATION_TYPE":"U","NORAD_CAT_ID":58927,"ELEMENT_SET_NO":999,"REV_AT_EPOCH":9318,"BSTAR":0.00043092344,"MEAN_MOTION_DOT":0.00012217,"MEAN_MOTION_DDOT":0}]
